{"type":"FeatureCollection","licence":"Data © OpenStreetMap contributors, ODbL 1.0. http://osm.org/copyright","features":[{"type":"Feature","properties":{"place_id":34226226,"osm_type":"node","osm_id":11046342855,"place_rank":19,"category":"place","type":"village","importance":0.14670416800183103,"addresstype":"village","name":"Lake Edward","display_name":"Lake Edward, Rukungiri, Western Region, Uganda"},"bbox":[29.7203267,-0.4023291,29.7603267,-0.3623291],"geometry":{"type":"Point","coordinates":[29.7403267,-0.3823291]}}]}